start=new Date('2022-11-05T00:00:00.000Z').valueOf();
sats=[{"SEMIMAJOR_AXIS":"6925.329","REV_AT_EPOCH":"9172","MEAN_MOTION_DDOT":"0.0000000000000","CENTER_NAME":"EARTH","RA_OF_ASC_NODE":"332.6384","EPOCH":"2022-11-04T19:06:22.114656","MEAN_ELEMENT_THEORY":"SGP4","COUNTRY_CODE":"US","FILE":"3645105","RCS_SIZE":"LARGE","INCLINATION":"53.0541","GP_ID":"216935104","TLE_LINE1":"1 48016U 21024AR  22308.79608929  .00000399  00000-0  45717-4 0  9992","OBJECT_ID":"2021-024AR","PERIAPSIS":"545.650","EPHEMERIS_TYPE":"0","PERIOD":"95.592","ECCENTRICITY":"0.00022300","REF_FRAME":"TEME","BSTAR":"0.00004571700000","SITE":"AFETR","APOAPSIS":"548.738","OBJECT_NAME":"STARLINK-2284","LAUNCH_DATE":"2021-03-24","OBJECT_TYPE":"PAYLOAD","MEAN_MOTION_DOT":"0.00000399","CLASSIFICATION_TYPE":"U","TIME_SYSTEM":"UTC","TLE_LINE2":"2 48016  53.0541 332.6384 0002230  47.0690 313.0486 15.06406394 91723","ELEMENT_SET_NO":"999","NORAD_CAT_ID":"48016","MEAN_MOTION":"15.06406394","ARG_OF_PERICENTER":"47.0690","MEAN_ANOMALY":"313.0486","DECAY_DATE":null},{"INCLINATION":"53.0560","FILE":"3644787","RCS_SIZE":"LARGE","GP_ID":"216903593","TLE_LINE1":"1 48018U 21024AT  22308.38786005  .00005097  00000-0  36068-3 0  9999","OBJECT_ID":"2021-024AT","SEMIMAJOR_AXIS":"6925.312","REV_AT_EPOCH":"9069","MEAN_MOTION_DDOT":"0.0000000000000","EPOCH":"2022-11-04T09:18:31.108320","MEAN_ELEMENT_THEORY":"SGP4","COUNTRY_CODE":"US","RA_OF_ASC_NODE":"44.4631","CENTER_NAME":"EARTH","OBJECT_TYPE":"PAYLOAD","TIME_SYSTEM":"UTC","CLASSIFICATION_TYPE":"U","ELEMENT_SET_NO":"999","TLE_LINE2":"2 48018  53.0560  44.4631 0001572  89.4368 270.6801 15.06412016 90691","MEAN_MOTION_DOT":"0.00005097","ARG_OF_PERICENTER":"89.4368","NORAD_CAT_ID":"48018","MEAN_MOTION":"15.06412016","DECAY_DATE":null,"MEAN_ANOMALY":"270.6801","PERIAPSIS":"546.088","EPHEMERIS_TYPE":"0","APOAPSIS":"548.265","SITE":"AFETR","BSTAR":"0.00036068000000","PERIOD":"95.591","ECCENTRICITY":"0.00015720","REF_FRAME":"TEME","LAUNCH_DATE":"2021-03-24","OBJECT_NAME":"STARLINK-2282"},{"OBJECT_TYPE":"PAYLOAD","TIME_SYSTEM":"UTC","CLASSIFICATION_TYPE":"U","TLE_LINE2":"2 48019  53.0547  34.1729 0001518  89.1300 270.9863 15.06400526 90777","ELEMENT_SET_NO":"999","MEAN_MOTION_DOT":"0.00002638","ARG_OF_PERICENTER":"89.1300","MEAN_MOTION":"15.06400526","NORAD_CAT_ID":"48019","DECAY_DATE":null,"MEAN_ANOMALY":"270.9863","PERIAPSIS":"546.161","EPHEMERIS_TYPE":"0","APOAPSIS":"548.263","SITE":"AFETR","BSTAR":"0.00019591000000","PERIOD":"95.592","ECCENTRICITY":"0.00015180","REF_FRAME":"TEME","LAUNCH_DATE":"2021-03-24","OBJECT_NAME":"STARLINK-2285","INCLINATION":"53.0547","FILE":"3644787","RCS_SIZE":"LARGE","GP_ID":"216902341","TLE_LINE1":"1 48019U 21024AU  22308.40351188  .00002638  00000-0  19591-3 0  9993","OBJECT_ID":"2021-024AU","SEMIMAJOR_AXIS":"6925.347","REV_AT_EPOCH":"9077","MEAN_MOTION_DDOT":"0.0000000000000","EPOCH":"2022-11-04T09:41:03.426432","COUNTRY_CODE":"US","MEAN_ELEMENT_THEORY":"SGP4","CENTER_NAME":"EARTH","RA_OF_ASC_NODE":"34.1729"},{"LAUNCH_DATE":"2021-03-24","OBJECT_NAME":"STARLINK-2294","SITE":"AFETR","APOAPSIS":"548.501","BSTAR":"0.00010050000000","ECCENTRICITY":"0.00018950","REF_FRAME":"TEME","PERIOD":"95.592","EPHEMERIS_TYPE":"0","PERIAPSIS":"545.876","DECAY_DATE":null,"MEAN_ANOMALY":"308.9238","ARG_OF_PERICENTER":"51.1920","NORAD_CAT_ID":"48020","MEAN_MOTION":"15.06408090","ELEMENT_SET_NO":"999","TLE_LINE2":"2 48020  53.0553 347.6159 0001895  51.1920 308.9238 15.06408090 91469","CLASSIFICATION_TYPE":"U","TIME_SYSTEM":"UTC","MEAN_MOTION_DOT":"0.00001216","OBJECT_TYPE":"PAYLOAD","COUNTRY_CODE":"US","MEAN_ELEMENT_THEORY":"SGP4","EPOCH":"2022-11-04T20:16:03.247392","RA_OF_ASC_NODE":"347.6159","CENTER_NAME":"EARTH","MEAN_MOTION_DDOT":"0.0000000000000","REV_AT_EPOCH":"9146","SEMIMAJOR_AXIS":"6925.324","OBJECT_ID":"2021-024AV","TLE_LINE1":"1 48020U 21024AV  22308.84448203  .00001216  00000-0  10050-3 0  9990","GP_ID":"216935845","INCLINATION":"53.0553","RCS_SIZE":"LARGE","FILE":"3645105"},{"EPHEMERIS_TYPE":"0","PERIAPSIS":"545.814","LAUNCH_DATE":"2021-03-24","OBJECT_NAME":"STARLINK-2301","BSTAR":"0.00042545000000","SITE":"AFETR","APOAPSIS":"548.534","REF_FRAME":"TEME","ECCENTRICITY":"0.00019640","PERIOD":"95.591","TLE_LINE2":"2 48021  53.0550 354.2446 0001964  50.7301 309.3862 15.06412831 91348","ELEMENT_SET_NO":"999","TIME_SYSTEM":"UTC","CLASSIFICATION_TYPE":"U","MEAN_MOTION_DOT":"0.00006063","OBJECT_TYPE":"PAYLOAD","DECAY_DATE":null,"MEAN_ANOMALY":"309.3862","ARG_OF_PERICENTER":"50.7301","NORAD_CAT_ID":"48021","MEAN_MOTION":"15.06412831","MEAN_MOTION_DDOT":"0.0000000000000","REV_AT_EPOCH":"9134","SEMIMAJOR_AXIS":"6925.309","MEAN_ELEMENT_THEORY":"SGP4","COUNTRY_CODE":"US","EPOCH":"2022-11-04T09:25:07.728384","RA_OF_ASC_NODE":"354.2446","CENTER_NAME":"EARTH","GP_ID":"216903849","INCLINATION":"53.0550","FILE":"3644787","RCS_SIZE":"LARGE","OBJECT_ID":"2021-024AW","TLE_LINE1":"1 48021U 21024AW  22308.39245056  .00006063  00000-0  42545-3 0  9991"},{"REV_AT_EPOCH":"9057","MEAN_MOTION_DDOT":"0.0000000000000","SEMIMAJOR_AXIS":"6925.313","EPOCH":"2022-11-04T13:16:03.269568","COUNTRY_CODE":"US","MEAN_ELEMENT_THEORY":"SGP4","CENTER_NAME":"EARTH","RA_OF_ASC_NODE":"53.7969","GP_ID":"216904100","INCLINATION":"53.0548","RCS_SIZE":"LARGE","FILE":"3644787","OBJECT_ID":"2021-024AX","TLE_LINE1":"1 48022U 21024AX  22308.55281562  .00003572  00000-0  25848-3 0  9991","EPHEMERIS_TYPE":"0","PERIAPSIS":"546.451","LAUNCH_DATE":"2021-03-24","OBJECT_NAME":"STARLINK-2298","APOAPSIS":"547.905","SITE":"AFETR","BSTAR":"0.00025848000000","PERIOD":"95.591","ECCENTRICITY":"0.00010500","REF_FRAME":"TEME","CLASSIFICATION_TYPE":"U","TIME_SYSTEM":"UTC","ELEMENT_SET_NO":"999","TLE_LINE2":"2 48022  53.0548  53.7969 0001050 101.3551 258.7556 15.06411555 90576","MEAN_MOTION_DOT":"0.00003572","OBJECT_TYPE":"PAYLOAD","DECAY_DATE":null,"MEAN_ANOMALY":"258.7556","ARG_OF_PERICENTER":"101.3551","MEAN_MOTION":"15.06411555","NORAD_CAT_ID":"48022"},{"SITE":"AFETR","BSTAR":"0.00013114000000","APOAPSIS":"548.132","PERIOD":"95.591","ECCENTRICITY":"0.00013750","REF_FRAME":"TEME","LAUNCH_DATE":"2021-03-24","OBJECT_NAME":"STARLINK-2292","PERIAPSIS":"546.228","EPHEMERIS_TYPE":"0","ARG_OF_PERICENTER":"93.0545","MEAN_MOTION":"15.06410869","NORAD_CAT_ID":"48023","DECAY_DATE":null,"MEAN_ANOMALY":"267.0602","OBJECT_TYPE":"PAYLOAD","CLASSIFICATION_TYPE":"U","TIME_SYSTEM":"UTC","ELEMENT_SET_NO":"999","TLE_LINE2":"2 48023  53.0542  52.0845 0001375  93.0545 267.0602 15.06410869 90624","MEAN_MOTION_DOT":"0.00001673","EPOCH":"2022-11-04T20:57:47.013120","MEAN_ELEMENT_THEORY":"SGP4","COUNTRY_CODE":"US","CENTER_NAME":"EARTH","RA_OF_ASC_NODE":"52.0845","SEMIMAJOR_AXIS":"6925.315","REV_AT_EPOCH":"9062","MEAN_MOTION_DDOT":"0.0000000000000","TLE_LINE1":"1 48023U 21024AY  22308.87346080  .00001673  00000-0  13114-3 0  9997","OBJECT_ID":"2021-024AY","INCLINATION":"53.0542","FILE":"3645105","RCS_SIZE":"LARGE","GP_ID":"216935606"},{"RA_OF_ASC_NODE":"57.7608","CENTER_NAME":"EARTH","EPOCH":"2022-11-04T17:16:51.195072","MEAN_ELEMENT_THEORY":"SGP4","COUNTRY_CODE":"US","REV_AT_EPOCH":"9047","MEAN_MOTION_DDOT":"0.0000000000000","SEMIMAJOR_AXIS":"6925.378","OBJECT_ID":"2021-024BB","TLE_LINE1":"1 48026U 21024BB  22308.72003698  .00000820  00000-0  73938-4 0  9993","GP_ID":"216936346","RCS_SIZE":"LARGE","FILE":"3645105","INCLINATION":"53.0567","OBJECT_NAME":"STARLINK-2278","LAUNCH_DATE":"2021-03-24","PERIOD":"95.593","ECCENTRICITY":"0.00014900","REF_FRAME":"TEME","SITE":"AFETR","BSTAR":"0.00007393800000","APOAPSIS":"548.275","EPHEMERIS_TYPE":"0","PERIAPSIS":"546.211","MEAN_ANOMALY":"243.0480","DECAY_DATE":null,"MEAN_MOTION":"15.06390387","NORAD_CAT_ID":"48026","ARG_OF_PERICENTER":"117.0661","MEAN_MOTION_DOT":"0.00000820","TIME_SYSTEM":"UTC","CLASSIFICATION_TYPE":"U","TLE_LINE2":"2 48026  53.0567  57.7608 0001490 117.0661 243.0480 15.06390387 90470","ELEMENT_SET_NO":"999","OBJECT_TYPE":"PAYLOAD"},{"MEAN_MOTION_DOT":"0.00001569","TIME_SYSTEM":"UTC","CLASSIFICATION_TYPE":"U","TLE_LINE2":"2 48027  53.0562  33.2376 0001560  56.5312 303.5826 15.06394181 90804","ELEMENT_SET_NO":"999","OBJECT_TYPE":"PAYLOAD","MEAN_ANOMALY":"303.5826","DECAY_DATE":null,"MEAN_MOTION":"15.06394181","NORAD_CAT_ID":"48027","ARG_OF_PERICENTER":"56.5312","EPHEMERIS_TYPE":"0","PERIAPSIS":"546.151","OBJECT_NAME":"STARLINK-2300","LAUNCH_DATE":"2021-03-24","PERIOD":"95.593","REF_FRAME":"TEME","ECCENTRICITY":"0.00015600","APOAPSIS":"548.312","SITE":"AFETR","BSTAR":"0.00012424000000","GP_ID":"216935105","FILE":"3645105","RCS_SIZE":"LARGE","INCLINATION":"53.0562","OBJECT_ID":"2021-024BC","TLE_LINE1":"1 48027U 21024BC  22308.61360643  .00001569  00000-0  12424-3 0  9991","REV_AT_EPOCH":"9080","MEAN_MOTION_DDOT":"0.0000000000000","SEMIMAJOR_AXIS":"6925.366","RA_OF_ASC_NODE":"33.2376","CENTER_NAME":"EARTH","EPOCH":"2022-11-04T14:43:35.595552","MEAN_ELEMENT_THEORY":"SGP4","COUNTRY_CODE":"US"},{"GP_ID":"216903594","INCLINATION":"53.0544","RCS_SIZE":"LARGE","FILE":"3644787","OBJECT_ID":"2021-024BD","TLE_LINE1":"1 48028U 21024BD  22308.39848960  .00013076  00000-0  89455-3 0  9994","MEAN_MOTION_DDOT":"0.0000000000000","REV_AT_EPOCH":"9145","SEMIMAJOR_AXIS":"6925.276","MEAN_ELEMENT_THEORY":"SGP4","COUNTRY_CODE":"US","EPOCH":"2022-11-04T09:33:49.501440","RA_OF_ASC_NODE":"349.6146","CENTER_NAME":"EARTH","ELEMENT_SET_NO":"999","TLE_LINE2":"2 48028  53.0544 349.6146 0002000  44.0113 316.1035 15.06423619 91458","TIME_SYSTEM":"UTC","CLASSIFICATION_TYPE":"U","MEAN_MOTION_DOT":"0.00013076","OBJECT_TYPE":"PAYLOAD","DECAY_DATE":null,"MEAN_ANOMALY":"316.1035","ARG_OF_PERICENTER":"44.0113","MEAN_MOTION":"15.06423619","NORAD_CAT_ID":"48028","EPHEMERIS_TYPE":"0","PERIAPSIS":"545.756","LAUNCH_DATE":"2021-03-24","OBJECT_NAME":"STARLINK-2264","SITE":"AFETR","APOAPSIS":"548.526","BSTAR":"0.00089455000000","ECCENTRICITY":"0.00020000","REF_FRAME":"TEME","PERIOD":"95.591"}];
